[
  {
    "COMMENT": "GENERATED VIA SPACETRACK.ORG API",
    "ORIGINATOR": "18 SPCS",
    "NORAD_CAT_ID": "41335",
    "OBJECT_NAME": "SENTINEL 3A",
    "OBJECT_TYPE": "PAYLOAD",
    "CLASSIFICATION_TYPE": "U",
    "INTLDES": "16011A",
    "EPOCH": "2023-06-26 03:11:54",
    "EPOCH_MICROSECONDS": "333600",
    "MEAN_MOTION": "14.26738942",
    "ECCENTRICITY": "0.0001249",
    "INCLINATION": "98.6209",
    "RA_OF_ASC_NODE": "244.052",
    "ARG_OF_PERICENTER": "90.6605",
    "MEAN_ANOMALY": "269.4719",
    "EPHEMERIS_TYPE": "0",
    "ELEMENT_SET_NO": "999",
    "REV_AT_EPOCH": "38305",
    "BSTAR": "0.000099345",
    "MEAN_MOTION_DOT": "0.00000197",
    "MEAN_MOTION_DDOT": "0",
    "FILE": "3942881",
    "TLE_LINE0": "0 SENTINEL 3A",
    "TLE_LINE1": "1 41335U 16011A   23177.13326775  .00000197  00000-0  99345-4 0  9990",
    "TLE_LINE2": "2 41335  98.6209 244.0520 0001249  90.6605 269.4719 14.26738942383054",
    "OBJECT_ID": "2016-011A",
    "OBJECT_NUMBER": "41335",
    "SEMIMAJOR_AXIS": "7180.789",
    "PERIOD": "100.929",
    "APOGEE": "803.551",
    "PERIGEE": "801.757",
    "DECAYED": "0"
  },
  {
    "COMMENT": "GENERATED VIA SPACETRACK.ORG API",
    "ORIGINATOR": "18 SPCS",
    "NORAD_CAT_ID": "41335",
    "OBJECT_NAME": "SENTINEL 3A",
    "OBJECT_TYPE": "PAYLOAD",
    "CLASSIFICATION_TYPE": "U",
    "INTLDES": "16011A",
    "EPOCH": "2023-06-26 09:55:51",
    "EPOCH_MICROSECONDS": "182112",
    "MEAN_MOTION": "14.26739084",
    "ECCENTRICITY": "0.0001249",
    "INCLINATION": "98.6209",
    "RA_OF_ASC_NODE": "244.3283",
    "ARG_OF_PERICENTER": "90.5684",
    "MEAN_ANOMALY": "269.5639",
    "EPHEMERIS_TYPE": "0",
    "ELEMENT_SET_NO": "999",
    "REV_AT_EPOCH": "38309",
    "BSTAR": "0.00010051",
    "MEAN_MOTION_DOT": "0.000002",
    "MEAN_MOTION_DDOT": "0",
    "FILE": "3943180",
    "TLE_LINE0": "0 SENTINEL 3A",
    "TLE_LINE1": "1 41335U 16011A   23177.41378683  .00000200  00000-0  10051-3 0  9997",
    "TLE_LINE2": "2 41335  98.6209 244.3283 0001249  90.5684 269.5639 14.26739084383093",
    "OBJECT_ID": "2016-011A",
    "OBJECT_NUMBER": "41335",
    "SEMIMAJOR_AXIS": "7180.789",
    "PERIOD": "100.929",
    "APOGEE": "803.550",
    "PERIGEE": "801.757",
    "DECAYED": "0"
  },
  {
    "COMMENT": "GENERATED VIA SPACETRACK.ORG API",
    "ORIGINATOR": "18 SPCS",
    "NORAD_CAT_ID": "41335",
    "OBJECT_NAME": "SENTINEL 3A",
    "OBJECT_TYPE": "PAYLOAD",
    "CLASSIFICATION_TYPE": "U",
    "INTLDES": "16011A",
    "EPOCH": "2023-06-26 16:39:48",
    "EPOCH_MICROSECONDS": "33216",
    "MEAN_MOTION": "14.26739138",
    "ECCENTRICITY": "0.0001249",
    "INCLINATION": "98.6209",
    "RA_OF_ASC_NODE": "244.6047",
    "ARG_OF_PERICENTER": "90.5562",
    "MEAN_ANOMALY": "269.5762",
    "EPHEMERIS_TYPE": "0",
    "ELEMENT_SET_NO": "999",
    "REV_AT_EPOCH": "38313",
    "BSTAR": "0.0000939",
    "MEAN_MOTION_DOT": "0.00000184",
    "MEAN_MOTION_DDOT": "0",
    "FILE": "3943486",
    "TLE_LINE0": "0 SENTINEL 3A",
    "TLE_LINE1": "1 41335U 16011A   23177.69430594  .00000184  00000-0  93900-4 0  9993",
    "TLE_LINE2": "2 41335  98.6209 244.6047 0001249  90.5562 269.5762 14.26739138383131",
    "OBJECT_ID": "2016-011A",
    "OBJECT_NUMBER": "41335",
    "SEMIMAJOR_AXIS": "7180.788",
    "PERIOD": "100.929",
    "APOGEE": "803.550",
    "PERIGEE": "801.756",
    "DECAYED": "0"
  },
  {
    "COMMENT": "GENERATED VIA SPACETRACK.ORG API",
    "ORIGINATOR": "18 SPCS",
    "NORAD_CAT_ID": "41335",
    "OBJECT_NAME": "SENTINEL 3A",
    "OBJECT_TYPE": "PAYLOAD",
    "CLASSIFICATION_TYPE": "U",
    "INTLDES": "16011A",
    "EPOCH": "2023-06-27 02:45:43",
    "EPOCH_MICROSECONDS": "299936",
    "MEAN_MOTION": "14.26739264",
    "ECCENTRICITY": "0.0001243",
    "INCLINATION": "98.6209",
    "RA_OF_ASC_NODE": "245.0193",
    "ARG_OF_PERICENTER": "90.6035",
    "MEAN_ANOMALY": "269.5287",
    "EPHEMERIS_TYPE": "0",
    "ELEMENT_SET_NO": "999",
    "REV_AT_EPOCH": "38319",
    "BSTAR": "0.000088864",
    "MEAN_MOTION_DOT": "0.00000171",
    "MEAN_MOTION_DDOT": "0",
    "FILE": "3943749",
    "TLE_LINE0": "0 SENTINEL 3A",
    "TLE_LINE1": "1 41335U 16011A   23178.11508449  .00000171  00000-0  88864-4 0  9995",
    "TLE_LINE2": "2 41335  98.6209 245.0193 0001243  90.6035 269.5287 14.26739264383196",
    "OBJECT_ID": "2016-011A",
    "OBJECT_NUMBER": "41335",
    "SEMIMAJOR_AXIS": "7180.788",
    "PERIOD": "100.929",
    "APOGEE": "803.545",
    "PERIGEE": "801.760",
    "DECAYED": "0"
  },
  {
    "COMMENT": "GENERATED VIA SPACETRACK.ORG API",
    "ORIGINATOR": "18 SPCS",
    "NORAD_CAT_ID": "41335",
    "OBJECT_NAME": "SENTINEL 3A",
    "OBJECT_TYPE": "PAYLOAD",
    "CLASSIFICATION_TYPE": "U",
    "INTLDES": "16011A",
    "EPOCH": "2023-06-27 11:10:39",
    "EPOCH_MICROSECONDS": "351936",
    "MEAN_MOTION": "14.26739392",
    "ECCENTRICITY": "0.0001242",
    "INCLINATION": "98.6209",
    "RA_OF_ASC_NODE": "245.3647",
    "ARG_OF_PERICENTER": "90.6158",
    "MEAN_ANOMALY": "269.5165",
    "EPHEMERIS_TYPE": "0",
    "ELEMENT_SET_NO": "999",
    "REV_AT_EPOCH": "38324",
    "BSTAR": "0.000086057",
    "MEAN_MOTION_DOT": "0.00000165",
    "MEAN_MOTION_DDOT": "0",
    "FILE": "3944005",
    "TLE_LINE0": "0 SENTINEL 3A",
    "TLE_LINE1": "1 41335U 16011A   23178.46573324  .00000165  00000-0  86057-4 0  9992",
    "TLE_LINE2": "2 41335  98.6209 245.3647 0001242  90.6158 269.5165 14.26739392383241",
    "OBJECT_ID": "2016-011A",
    "OBJECT_NUMBER": "41335",
    "SEMIMAJOR_AXIS": "7180.787",
    "PERIOD": "100.929",
    "APOGEE": "803.544",
    "PERIGEE": "801.761",
    "DECAYED": "0"
  },
  {
    "COMMENT": "GENERATED VIA SPACETRACK.ORG API",
    "ORIGINATOR": "18 SPCS",
    "NORAD_CAT_ID": "41335",
    "OBJECT_NAME": "SENTINEL 3A",
    "OBJECT_TYPE": "PAYLOAD",
    "CLASSIFICATION_TYPE": "U",
    "INTLDES": "16011A",
    "EPOCH": "2023-06-27 19:35:35",
    "EPOCH_MICROSECONDS": "398752",
    "MEAN_MOTION": "14.26739528",
    "ECCENTRICITY": "0.0001237",
    "INCLINATION": "98.6209",
    "RA_OF_ASC_NODE": "245.7102",
    "ARG_OF_PERICENTER": "90.7339",
    "MEAN_ANOMALY": "269.3983",
    "EPHEMERIS_TYPE": "0",
    "ELEMENT_SET_NO": "999",
    "REV_AT_EPOCH": "38329",
    "BSTAR": "0.000083079",
    "MEAN_MOTION_DOT": "0.00000157",
    "MEAN_MOTION_DDOT": "0",
    "FILE": "3944325",
    "TLE_LINE0": "0 SENTINEL 3A",
    "TLE_LINE1": "1 41335U 16011A   23178.81638193  .00000157  00000-0  83079-4 0  9999",
    "TLE_LINE2": "2 41335  98.6209 245.7102 0001237  90.7339 269.3983 14.26739528383299",
    "OBJECT_ID": "2016-011A",
    "OBJECT_NUMBER": "41335",
    "SEMIMAJOR_AXIS": "7180.787",
    "PERIOD": "100.929",
    "APOGEE": "803.540",
    "PERIGEE": "801.764",
    "DECAYED": "0"
  },
  {
    "COMMENT": "GENERATED VIA SPACETRACK.ORG API",
    "ORIGINATOR": "18 SPCS",
    "NORAD_CAT_ID": "41335",
    "OBJECT_NAME": "SENTINEL 3A",
    "OBJECT_TYPE": "PAYLOAD",
    "CLASSIFICATION_TYPE": "U",
    "INTLDES": "16011A",
    "EPOCH": "2023-06-28 04:00:31",
    "EPOCH_MICROSECONDS": "445568",
    "MEAN_MOTION": "14.26739665",
    "ECCENTRICITY": "0.0001234",
    "INCLINATION": "98.6209",
    "RA_OF_ASC_NODE": "246.0557",
    "ARG_OF_PERICENTER": "90.8074",
    "MEAN_ANOMALY": "269.3247",
    "EPHEMERIS_TYPE": "0",
    "ELEMENT_SET_NO": "999",
    "REV_AT_EPOCH": "38334",
    "BSTAR": "0.000081706",
    "MEAN_MOTION_DOT": "0.00000154",
    "MEAN_MOTION_DDOT": "0",
    "FILE": "3944605",
    "TLE_LINE0": "0 SENTINEL 3A",
    "TLE_LINE1": "1 41335U 16011A   23179.16703062  .00000154  00000-0  81706-4 0  9998",
    "TLE_LINE2": "2 41335  98.6209 246.0557 0001234  90.8074 269.3247 14.26739665383342",
    "OBJECT_ID": "2016-011A",
    "OBJECT_NUMBER": "41335",
    "SEMIMAJOR_AXIS": "7180.787",
    "PERIOD": "100.929",
    "APOGEE": "803.538",
    "PERIGEE": "801.765",
    "DECAYED": "0"
  },
  {
    "COMMENT": "GENERATED VIA SPACETRACK.ORG API",
    "ORIGINATOR": "18 SPCS",
    "NORAD_CAT_ID": "41335",
    "OBJECT_NAME": "SENTINEL 3A",
    "OBJECT_TYPE": "PAYLOAD",
    "CLASSIFICATION_TYPE": "U",
    "INTLDES": "16011A",
    "EPOCH": "2023-06-28 10:44:28",
    "EPOCH_MICROSECONDS": "280256",
    "MEAN_MOTION": "14.26739761",
    "ECCENTRICITY": "0.0001234",
    "INCLINATION": "98.6209",
    "RA_OF_ASC_NODE": "246.332",
    "ARG_OF_PERICENTER": "90.8056",
    "MEAN_ANOMALY": "269.3265",
    "EPHEMERIS_TYPE": "0",
    "ELEMENT_SET_NO": "999",
    "REV_AT_EPOCH": "38338",
    "BSTAR": "0.00007961",
    "MEAN_MOTION_DOT": "0.00000149",
    "MEAN_MOTION_DDOT": "0",
    "FILE": "3944855",
    "TLE_LINE0": "0 SENTINEL 3A",
    "TLE_LINE1": "1 41335U 16011A   23179.44754954  .00000149  00000-0  79610-4 0  9990",
    "TLE_LINE2": "2 41335  98.6209 246.3320 0001234  90.8056 269.3265 14.26739761383384",
    "OBJECT_ID": "2016-011A",
    "OBJECT_NUMBER": "41335",
    "SEMIMAJOR_AXIS": "7180.786",
    "PERIOD": "100.929",
    "APOGEE": "803.537",
    "PERIGEE": "801.765",
    "DECAYED": "0"
  }
]